ORBCOMM FM05            
1 25117U 97084F   25364.11235318  .00003203  00000+0  91568-3 0  9997
2 25117  45.0123 146.8004 0003047 149.2288 210.8742 14.46770440468979
ORBCOMM FM06            
1 25118U 97084G   25364.11688904  .00003391  00000+0  96377-3 0  9992
2 25118  45.0114 146.2798 0002056 160.6908   9.5351 14.46933721469893
ORBCOMM FM07            
1 25119U 97084H   25364.09646083  .00002983  00000+0  85240-3 0  9995
2 25119  45.0091 147.1244 0003725 140.5149 219.5975 14.46948604469882
ORBCOMM FM03            
1 25158U 98007B   25364.18353903  .00002685  00000+0  97345-3 0  9998
2 25158 107.9638 178.3624 0046857 265.6963  93.8822 14.35082148452150
ORBCOMM FM04            
1 25159U 98007C   25364.13427812  .00002246  00000+0  81957-3 0  9990
2 25159 107.9630 181.6160 0042643 263.2350  96.3936 14.35324615452330
ORBCOMM FM17            
1 25413U 98046A   25364.12571652  .00001426  00000+0  53920-3 0  9995
2 25413  44.9949  52.5607 0001964 170.3600 189.7285 14.35577862431329
ORBCOMM FM18            
1 25414U 98046B   25364.15125053  .00002138  00000+0  72884-3 0  9990
2 25414  44.9942 324.4920 0004046 217.9144 142.1420 14.39208144432476
ORBCOMM FM19            
1 25415U 98046C   25364.19568977  .00002197  00000+0  75045-3 0  9998
2 25415  44.9953 326.5796 0002822 223.7543 150.9640 14.39030271432432
